QIANFAN-81              
1 63167U 25046J   25266.35202339  .00000263  00000+0  38949-3 0  9994
2 63167  88.9833 328.1819 0014026   2.1974 357.9237 13.50979139 36633
QIANFAN-82              
1 63168U 25046K   25266.31088390  .00000251  00000+0  37025-3 0  9991
2 63168  88.9834 328.2297 0012532  11.7704 348.3737 13.50966851 36617
QIANFAN-83              
1 63169U 25046L   25266.32550286  .00000297  00000+0  37011-3 0  9996
2 63169  88.9833 328.1623 0013384   0.3042 359.8121 13.61953639 36654
QIANFAN-84              
1 63170U 25046M   25266.33947728  .00000165  00000+0  23736-3 0  9993
2 63170  88.9834 328.3597 0015306   6.0218 354.1114 13.50980311 36546
QIANFAN-85              
1 63171U 25046N   25266.33562970  .00000249  00000+0  36766-3 0  9996
2 63171  88.9833 328.2322 0012821  10.3553 349.7860 13.50977074 36618
QIANFAN-86              
1 63172U 25046P   25266.34384575  .00000252  00000+0  37210-3 0  9990
2 63172  88.9835 328.0916 0010911  16.6888 343.4620 13.50977516 36690
QIANFAN-87              
1 63173U 25046Q   25266.31505876  .00000239  00000+0  35104-3 0  9992
2 63173  88.9830 328.2092 0011403  10.7993 349.3400 13.50973317 36621
QIANFAN-88              
1 63174U 25046R   25266.40554546  .00000242  00000+0  35655-3 0  9996
2 63174  88.9833 328.1524 0012100  18.2721 341.8863 13.50966653 36660
